{"type": "FeatureCollection", "features": [ {"type": "Feature", "properties": {"norad_id": 66376, "name": "SHIYAN-32 01", "group": "last-30-days", "lat": -19.84051075752508, "lon": 54.278890139218674, "alt_km": 451.32846518446877, "timestamp": "2025-12-04T05:42:42.156881+00:00", "meta": {"OBJECT_NAME": "SHIYAN-32 01", "OBJECT_ID": "2025-255A", "EPOCH": "2025-12-03T19:29:42.344160", "MEAN_MOTION": 15.42305162, "ECCENTRICITY": 0.00134408, "INCLINATION": 52.9965, "RA_OF_ASC_NODE": 220.5104, "ARG_OF_PERICENTER": 14.5476, "MEAN_ANOMALY": 345.5912, "EPHEMERIS_TYPE": 0, "CLASSIFICATION_TYPE": "U", "NORAD_CAT_ID": 66376, "ELEMENT_SET_NO": 999, "REV_AT_EPOCH": 397, "BSTAR": 0.00066669846, "MEAN_MOTION_DOT": 0.00028938, "MEAN_MOTION_DDOT": 0}, "tle": {"line1": "1 66376U 25255A   25337.81229565  .00028938  00000+0  66670-3 0  9992", "line2": "2 66376  52.9965 220.5104 0013440  14.5476 345.5912 15.42305162  3976"}}, "geometry": {"type": "Point", "coordinates": [54.278890139218674, -19.84051075752508]}}, {"type": "Feature", "properties": {"norad_id": 66377, "name": "CZ-11 DEB", "group": "last-30-days", "lat": -52.713967623687566, "lon": 136.24665314560784, "alt_km": 441.6039166413275, "timestamp": "2025-12-04T05:42:42.156891+00:00", "meta": {"OBJECT_NAME": "CZ-11 DEB", "OBJECT_ID": "2025-255B", "EPOCH": "2025-12-03T22:18:35.900352", "MEAN_MOTION": 15.43600243, "ECCENTRICITY": 0.00139504, "INCLINATION": 52.9964, "RA_OF_ASC_NODE": 219.8171, "ARG_OF_PERICENTER": 12.5559, "MEAN_ANOMALY": 347.579, "EPHEMERIS_TYPE": 0, "CLASSIFICATION_TYPE": "U", "NORAD_CAT_ID": 66377, "ELEMENT_SET_NO": 999, "REV_AT_EPOCH": 385, "BSTAR": 0.0013598709, "MEAN_MOTION_DOT": 0.00062411, "MEAN_MOTION_DDOT": 0}, "tle": {"line1": "1 66377U 25255B   25337.92958218  .00062411  00000+0  13599-2 0  9994", "line2": "2 66377  52.9964 219.8171 0013950  12.5559 347.5790 15.43600243  3859"}}, "geometry": {"type": "Point", "coordinates": [136.24665314560784, -52.713967623687566]}}, {"type": "Feature", "properties": {"norad_id": 66378, "name": "SHIYAN-32 02", "group": "last-30-days", "lat": -40.91176404032307, "lon": 177.47939132279356, "alt_km": 434.8154567318161, "timestamp": "2025-12-04T05:42:42.156904+00:00", "meta": {"OBJECT_NAME": "SHIYAN-32 02", "OBJECT_ID": "2025-255C", "EPOCH": "2025-12-03T22:10:57.914688", "MEAN_MOTION": 15.44186746, "ECCENTRICITY": 0.00124047, "INCLINATION": 52.9963, "RA_OF_ASC_NODE": 219.7855, "ARG_OF_PERICENTER": 11.8062, "MEAN_ANOMALY": 348.3231, "EPHEMERIS_TYPE": 0, "CLASSIFICATION_TYPE": "U", "NORAD_CAT_ID": 66378, "ELEMENT_SET_NO": 999, "REV_AT_EPOCH": 385, "BSTAR": 0.0018160733, "MEAN_MOTION_DOT": 0.00085363, "MEAN_MOTION_DDOT": 0}, "tle": {"line1": "1 66378U 25255C   25337.92428142  .00085363  00000+0  18161-2 0  9994", "line2": "2 66378  52.9963 219.7855 0012404  11.8062 348.3231 15.44186746  3858"}}, "geometry": {"type": "Point", "coordinates": [177.47939132279356, -40.91176404032307]}}, {"type": "Feature", "properties": {"norad_id": 66379, "name": "SHIYAN-32 03", "group": "last-30-days", "lat": -42.426174467280575, "lon": 81.99765808753095, "alt_km": 450.6401441309936, "timestamp": "2025-12-04T05:42:42.156914+00:00", "meta": {"OBJECT_NAME": "SHIYAN-32 03", "OBJECT_ID": "2025-255D", "EPOCH": "2025-12-03T19:21:23.378976", "MEAN_MOTION": 15.42657531, "ECCENTRICITY": 0.00154748, "INCLINATION": 52.997, "RA_OF_ASC_NODE": 220.4749, "ARG_OF_PERICENTER": 15.5245, "MEAN_ANOMALY": 344.6231, "EPHEMERIS_TYPE": 0, "CLASSIFICATION_TYPE": "U", "NORAD_CAT_ID": 66379, "ELEMENT_SET_NO": 999, "REV_AT_EPOCH": 385, "BSTAR": 0.00067886284, "MEAN_MOTION_DOT": 0.00029862, "MEAN_MOTION_DDOT": 0}, "tle": {"line1": "1 66379U 25255D   25337.80652059  .00029862  00000+0  67886-3 0  9999", "line2": "2 66379  52.9970 220.4749 0015474  15.5245 344.6231 15.42657531  3854"}}, "geometry": {"type": "Point", "coordinates": [81.99765808753095, -42.426174467280575]}}, {"type": "Feature", "properties": {"norad_id": 66380, "name": "STARLINK-35139", "group": "last-30-days", "lat": 5.346787810853444, "lon": 120.68917634666865, "alt_km": 447.2593471669661, "timestamp": "2025-12-04T05:42:42.156927+00:00", "meta": {"OBJECT_NAME": "STARLINK-35139", "OBJECT_ID": "2025-257A", "EPOCH": "2025-12-03T22:00:03.000096", "MEAN_MOTION": 15.39648246, "ECCENTRICITY": 0.00012596, "INCLINATION": 53.1588, "RA_OF_ASC_NODE": 306.2273, "ARG_OF_PERICENTER": 92.7303, "MEAN_ANOMALY": 98.6755, "EPHEMERIS_TYPE": 0, "CLASSIFICATION_TYPE": "U", "NORAD_CAT_ID": 66380, "ELEMENT_SET_NO": 999, "REV_AT_EPOCH": 501, "BSTAR": -0.0011615638, "MEAN_MOTION_DOT": -0.0004662, "MEAN_MOTION_DDOT": 0}, "tle": {"line1": "1 66380U 25257A   25337.91670139 -.00046620  00000+0 -11616-2 0  9996", "line2": "2 66380  53.1588 306.2273 0001259  92.7303  98.6755 15.39648246  5013"}}, "geometry": {"type": "Point", "coordinates": [120.68917634666865, 5.346787810853444]}}, {"type": "Feature", "properties": {"norad_id": 66381, "name": "STARLINK-35158", "group": "last-30-days", "lat": 3.882027570804258, "lon": 121.7924188308996, "alt_km": 447.4304850481976, "timestamp": "2025-12-04T05:42:42.156938+00:00", "meta": {"OBJECT_NAME": "STARLINK-35158", "OBJECT_ID": "2025-257B", "EPOCH": "2025-12-03T22:00:03.000096", "MEAN_MOTION": 15.3966548, "ECCENTRICITY": 0.00013348, "INCLINATION": 53.1588, "RA_OF_ASC_NODE": 306.2231, "ARG_OF_PERICENTER": 95.5265, "MEAN_ANOMALY": 97.7003, "EPHEMERIS_TYPE": 0, "CLASSIFICATION_TYPE": "U", "NORAD_CAT_ID": 66381, "ELEMENT_SET_NO": 999, "REV_AT_EPOCH": 507, "BSTAR": -0.0017140377, "MEAN_MOTION_DOT": -0.00068449, "MEAN_MOTION_DDOT": 0}, "tle": {"line1": "1 66381U 25257B   25337.91670139 -.00068449  00000+0 -17140-2 0  9998", "line2": "2 66381  53.1588 306.2231 0001334  95.5265  97.7003 15.39665480  5071"}}, "geometry": {"type": "Point", "coordinates": [121.7924188308996, 3.882027570804258]}}, {"type": "Feature", "properties": {"norad_id": 66382, "name": "STARLINK-35639", "group": "last-30-days", "lat": -15.14094129104711, "lon": 136.36426634589196, "alt_km": 449.9031148654376, "timestamp": "2025-12-04T05:42:42.156948+00:00", "meta": {"OBJECT_NAME": "STARLINK-35639", "OBJECT_ID": "2025-257C", "EPOCH": "2025-12-03T22:00:03.000096", "MEAN_MOTION": 15.39663845, "ECCENTRICITY": 0.00014171, "INCLINATION": 53.1594, "RA_OF_ASC_NODE": 306.1739, "ARG_OF_PERICENTER": 108.9121, "MEAN_ANOMALY": 108.2336, "EPHEMERIS_TYPE": 0, "CLASSIFICATION_TYPE": "U", "NORAD_CAT_ID": 66382, "ELEMENT_SET_NO": 999, "REV_AT_EPOCH": 507, "BSTAR": -0.0023145066, "MEAN_MOTION_DOT": -0.00092002, "MEAN_MOTION_DDOT": 0}, "tle": {"line1": "1 66382U 25257C   25337.91670139 -.00092002  00000+0 -23145-2 0  9993", "line2": "2 66382  53.1594 306.1739 0001417 108.9121 108.2336 15.39663845  5073"}}, "geometry": {"type": "Point", "coordinates": [136.36426634589196, -15.14094129104711]}}, {"type": "Feature", "properties": {"norad_id": 66383, "name": "STARLINK-35690", "group": "last-30-days", "lat": -34.27998049143806, "lon": 155.3417689815135, "alt_km": 451.85592486390215, "timestamp": "2025-12-04T05:42:42.156958+00:00", "meta": {"OBJECT_NAME": "STARLINK-35690", "OBJECT_ID": "2025-257D", "EPOCH": "2025-12-03T22:00:03.000096", "MEAN_MOTION": 15.39610921, "ECCENTRICITY": 0.00015633, "INCLINATION": 53.1597, "RA_OF_ASC_NODE": 306.1227, "ARG_OF_PERICENTER": 107.0415, "MEAN_ANOMALY": 135.8494, "EPHEMERIS_TYPE": 0, "CLASSIFICATION_TYPE": "U", "NORAD_CAT_ID": 66383, "ELEMENT_SET_NO": 999, "REV_AT_EPOCH": 507, "BSTAR": -0.0003106378, "MEAN_MOTION_DOT": -0.000128, "MEAN_MOTION_DDOT": 0}, "tle": {"line1": "1 66383U 25257D   25337.91670139 -.00012800  00000+0 -31064-3 0  9992", "line2": "2 66383  53.1597 306.1227 0001563 107.0415 135.8494 15.39610921  5075"}}, "geometry": {"type": "Point", "coordinates": [155.3417689815135, -34.27998049143806]}}, {"type": "Feature", "properties": {"norad_id": 66384, "name": "STARLINK-35662", "group": "last-30-days", "lat": -35.558033766078516, "lon": 157.0116728249157, "alt_km": 451.99368262800544, "timestamp": "2025-12-04T05:42:42.156968+00:00", "meta": {"OBJECT_NAME": "STARLINK-35662", "OBJECT_ID": "2025-257E", "EPOCH": "2025-12-03T22:00:03.000096", "MEAN_MOTION": 15.39680663, "ECCENTRICITY": 0.00015804, "INCLINATION": 53.1598, "RA_OF_ASC_NODE": 306.1199, "ARG_OF_PERICENTER": 99.6725, "MEAN_ANOMALY": 145.0392, "EPHEMERIS_TYPE": 0, "CLASSIFICATION_TYPE": "U", "NORAD_CAT_ID": 66384, "ELEMENT_SET_NO": 999, "REV_AT_EPOCH": 507, "BSTAR": -0.0018624707, "MEAN_MOTION_DOT": -0.00074324, "MEAN_MOTION_DDOT": 0}, "tle": {"line1": "1 66384U 25257E   25337.91670139 -.00074324  00000+0 -18625-2 0  9999", "line2": "2 66384  53.1598 306.1199 0001580  99.6725 145.0392 15.39680663  5074"}}, "geometry": {"type": "Point", "coordinates": [157.0116728249157, -35.558033766078516]}}, {"type": "Feature", "properties": {"norad_id": 66385, "name": "STARLINK-35659", "group": "last-30-days", "lat": -16.57846869195005, "lon": 137.55394908310552, "alt_km": 450.1241485617402, "timestamp": "2025-12-04T05:42:42.156978+00:00", "meta": {"OBJECT_NAME": "STARLINK-35659", "OBJECT_ID": "2025-257F", "EPOCH": "2025-12-03T22:00:03.000096", "MEAN_MOTION": 15.39668663, "ECCENTRICITY": 0.00014635, "INCLINATION": 53.1594, "RA_OF_ASC_NODE": 306.1714, "ARG_OF_PERICENTER": 101.7333, "MEAN_ANOMALY": 117.235, "EPHEMERIS_TYPE": 0, "CLASSIFICATION_TYPE": "U", "NORAD_CAT_ID": 66385, "ELEMENT_SET_NO": 999, "REV_AT_EPOCH": 507, "BSTAR": -0.0015577003, "MEAN_MOTION_DOT": -0.00062299, "MEAN_MOTION_DDOT": 0}, "tle": {"line1": "1 66385U 25257F   25337.91670139 -.00062299  00000+0 -15577-2 0  9991", "line2": "2 66385  53.1594 306.1714 0001463 101.7333 117.2350 15.39668663  5075"}}, "geometry": {"type": "Point", "coordinates": [137.55394908310552, -16.57846869195005]}}]}